ORBCOMM FM16 [+]        
1 25417U 98046E   17345.90418506  .00000094  00000-0  85361-4 0  9999
2 25417  44.9974 145.6983 0001779 241.2427 118.8240 14.32655849 10338
